NORAD_CAT_ID,OBJECT_NAME,OBJECT_TYPE,EPOCH,MEAN_MOTION,ECCENTRICITY,INCLINATION,RA_OF_ASC_NODE,ARG_OF_PERICENTER,MEAN_ANOMALY,BSTAR,MEAN_MOTION_DOT,MEAN_MOTION_DDOT,TLE_LINE0,TLE_LINE1,TLE_LINE2,SEMIMAJOR_AXIS,PERIOD,APOGEE,PERIGEE,DECAYED
53147.0,STARLINK-4094,PAYLOAD,2023-08-06 03:01:36,15.08862293,0.0001251,53.2159,103.4098,88.1303,271.9833,0.00045238,6.923e-05,0.0,0 STARLINK-4094,1 53147U 22083R   23218.12611224  .00006923  00000-0  45238-3 0  9995,2 53147  53.2159 103.4098 0001251  88.1303 271.9833 15.08862293 58958,6917.812,95.436,540.543,538.812,0.0
53147.0,STARLINK-4094,PAYLOAD,2023-08-06 09:23:09,15.08841769,0.0002223,53.2155,102.2188,75.2647,284.8592,-8.9098e-06,-4.3e-06,0.0,0 STARLINK-4094,1 53147U 22083R   23218.39108189 -.00000430  00000-0 -89098-5 0  9998,2 53147  53.2155 102.2188 0002223  75.2647 284.8592 15.08841769 58993,6917.875,95.437,541.278,538.202,0.0
53147.0,STARLINK-4094,PAYLOAD,2023-08-07 01:17:01,15.08817847,0.0001154,53.2157,99.2469,79.4186,280.6936,-0.00036505,-6.089e-05,0.0,0 STARLINK-4094,1 53147U 22083R   23219.05349233 -.00006089  00000-0 -36505-3 0  9998,2 53147  53.2157  99.2469 0001154  79.4186 280.6936 15.08817847 59096,6917.948,95.439,540.611,539.015,0.0
53147.0,STARLINK-4094,PAYLOAD,2023-08-07 09:13:57,15.08823982,0.0001208,53.2165,97.7613,80.1928,279.9201,-4.846e-05,-1.059e-05,0.0,0 STARLINK-4094,1 53147U 22083R   23219.38469568 -.00001059  00000-0 -48460-4 0  9994,2 53147  53.2165  97.7613 0001208  80.1928 279.9201 15.08823982 59141,6917.929,95.439,540.63,538.959,0.0
53147.0,STARLINK-4094,PAYLOAD,2023-08-07 23:32:25,15.08861029,7.58e-05,53.2153,95.0836,105.8922,254.2154,0.0017247,0.00027283,0.0,0 STARLINK-4094,1 53147U 22083R   23219.98085597  .00027283  00000-0  17247-2 0  9998,2 53147  53.2153  95.0836 0000758 105.8922 254.2154 15.08861029 59231,6917.816,95.436,540.205,539.157,0.0
53147.0,STARLINK-4094,PAYLOAD,2023-08-08 09:04:44,15.08860636,0.0001,53.2151,93.3002,79.3974,280.7131,0.0013332,0.00021006,0.0,0 STARLINK-4094,1 53147U 22083R   23220.37829778  .00021006  00000-0  13332-2 0  9998,2 53147  53.2151  93.3002 0001000  79.3974 280.7131 15.08860636 59296,6917.817,95.436,540.374,538.991,0.0
53147.0,STARLINK-4094,PAYLOAD,2023-08-09 23:13:59,15.08854971,7.79e-05,53.2155,86.1657,73.6682,286.4396,0.00050749,7.801e-05,0.0,0 STARLINK-4094,1 53147U 22083R   23221.96804423  .00007801  00000-0  50749-3 0  9995,2 53147  53.2155  86.1657 0000779  73.6682 286.4396 15.08854971 59539,6917.835,95.437,540.239,539.161,0.0
53147.0,STARLINK-4094,PAYLOAD,2023-08-10 05:35:31,15.08845322,0.000105,53.2166,84.9731,87.2246,272.8867,0.00026171,3.88e-05,0.0,0 STARLINK-4094,1 53147U 22083R   23222.23300524  .00003880  00000-0  26171-3 0  9994,2 53147  53.2166  84.9731 0001050  87.2246 272.8867 15.08845322 59576,6917.864,95.437,540.455,539.003,0.0
53147.0,STARLINK-4094,PAYLOAD,2023-08-11 00:40:09,15.08847048,0.0001106,53.2172,81.4034,91.1133,268.9986,7.9164e-05,9.73e-06,0.0,0 STARLINK-4094,1 53147U 22083R   23223.02788312  .00000973  00000-0  79164-4 0  9998,2 53147  53.2172  81.4034 0001106  91.1133 268.9986 15.08847048 59690,6917.859,95.437,540.489,538.959,0.0
53147.0,STARLINK-4094,PAYLOAD,2023-08-11 18:09:24,15.08835576,0.0001137,53.2164,78.1319,90.5292,269.583,-1.7797e-06,-3.16e-06,0.0,0 STARLINK-4094,1 53147U 22083R   23223.75652886 -.00000316  00000-0 -17797-5 0  9992,2 53147  53.2164  78.1319 0001137  90.5292 269.5830 15.08835576 59804,6917.894,95.438,540.545,538.972,0.0
53147.0,STARLINK-4094,PAYLOAD,2023-08-12 21:10:56,15.08866815,5.45e-05,53.2161,73.0811,109.727,250.3781,-0.00025033,-4.272e-05,0.0,0 STARLINK-4094,1 53147U 22083R   23224.88260168 -.00004272  00000-0 -25033-3 0  9990,2 53147  53.2161  73.0811 0000545 109.7270 250.3781 15.08866815 59974,6917.798,95.436,540.04,539.286,0.0
53147.0,STARLINK-4094,PAYLOAD,2023-08-13 00:21:43,15.08848983,0.0001034,53.2156,72.4851,95.1842,264.9268,7.9425e-05,9.77e-06,0.0,0 STARLINK-4094,1 53147U 22083R   23225.01508331  .00000977  00000-0  79425-4 0  9994,2 53147  53.2156  72.4851 0001034  95.1842 264.9268 15.08848983 59991,6917.853,95.437,540.433,539.003,0.0
53147.0,STARLINK-4094,PAYLOAD,2023-08-13 17:50:58,15.08835939,0.0001167,53.2145,69.2145,92.8051,267.3075,-5.3602e-05,-1.141e-05,0.0,0 STARLINK-4094,1 53147U 22083R   23225.74373172 -.00001141  00000-0 -53602-4 0  9992,2 53147  53.2145  69.2145 0001167  92.8051 267.3075 15.08835939 60107,6917.893,95.438,540.565,538.95,0.0
53147.0,STARLINK-4094,PAYLOAD,2023-08-14 12:55:35,15.08869288,0.0001017,53.2171,65.6436,81.7942,278.3166,-0.00039482,-6.571e-05,0.0,0 STARLINK-4094,1 53147U 22083R   23226.53860986 -.00006571  00000-0 -39482-3 0  9995,2 53147  53.2171  65.6436 0001017  81.7942 278.3166 15.08869288 60229,6917.791,95.436,540.359,538.952,0.0
53147.0,STARLINK-4094,PAYLOAD,2023-08-14 22:27:54,15.08847666,0.0001083,53.2165,63.8612,89.9343,270.1774,8.7388e-05,1.104e-05,0.0,0 STARLINK-4094,1 53147U 22083R   23226.93604833  .00001104  00000-0  87388-4 0  9990,2 53147  53.2165  63.8612 0001083  89.9343 270.1774 15.08847666 60283,6917.857,95.437,540.471,538.973,0.0
53147.0,STARLINK-4094,PAYLOAD,2023-08-15 22:18:42,15.08841436,0.0001266,53.2169,59.4021,72.6112,287.5019,9.0629e-05,1.155e-05,0.0,0 STARLINK-4094,1 53147U 22083R   23227.92965442  .00001155  00000-0  90629-4 0  9994,2 53147  53.2169  59.4021 0001266  72.6112 287.5019 15.08841436 60438,6917.876,95.437,540.617,538.865,0.0
53147.0,STARLINK-4094,PAYLOAD,2023-08-16 06:15:38,15.08825595,0.0001231,53.2158,57.9145,82.3417,277.7715,0.00028738,4.287e-05,0.0,0 STARLINK-4094,1 53147U 22083R   23228.26086208  .00004287  00000-0  28738-3 0  9996,2 53147  53.2158  57.9145 0001231  82.3417 277.7715 15.08825595 60481,6917.924,95.438,540.641,538.938,0.0
53147.0,STARLINK-4094,PAYLOAD,2023-08-16 18:58:42,15.08842368,0.0001323,53.2148,55.5334,91.0995,269.0148,6.767e-05,7.89e-06,0.0,0 STARLINK-4094,1 53147U 22083R   23228.79077416  .00000789  00000-0  67670-4 0  9997,2 53147  53.2148  55.5334 0001323  91.0995 269.0148 15.08842368 60564,6917.873,95.437,540.653,538.823,0.0
53147.0,STARLINK-4094,PAYLOAD,2023-08-17 23:35:38,15.08859873,9.91e-05,53.2188,50.1805,93.6077,266.5028,-2.2543e-05,-6.47e-06,0.0,0 STARLINK-4094,1 53147U 22083R   23229.98308335 -.00000647  00000-0 -22543-4 0  9991,2 53147  53.2188  50.1805 0000991  93.6077 266.5028 15.08859873 60749,6917.82,95.436,540.37,538.999,0.0
53147.0,STARLINK-4094,PAYLOAD,2023-08-18 18:40:17,15.08838987,0.0001396,53.2169,46.6135,93.581,266.5342,7.0356e-05,8.32e-06,0.0,0 STARLINK-4094,1 53147U 22083R   23230.77797719  .00000832  00000-0  70356-4 0  9997,2 53147  53.2169  46.6135 0001396  93.5810 266.5342 15.08838987 60863,6917.883,95.438,540.714,538.783,0.0
53147.0,STARLINK-4094,PAYLOAD,2023-08-19 20:06:27,15.0884206,0.0001294,53.2151,41.8557,95.8999,264.2141,-3.2948e-05,-8.12e-06,0.0,0 STARLINK-4094,1 53147U 22083R   23231.83781631 -.00000812  00000-0 -32948-4 0  9996,2 53147  53.2151  41.8557 0001294  95.8999 264.2141 15.08842060 61027,6917.874,95.437,540.634,538.844,0.0
53147.0,STARLINK-4094,PAYLOAD,2023-08-20 23:08:00,15.08845547,8.55e-05,53.2176,36.7993,82.0001,278.1088,0.00016491,2.338e-05,0.0,0 STARLINK-4094,1 53147U 22083R   23232.96389593  .00002338  00000-0  16491-3 0  9999,2 53147  53.2176  36.7993 0000855  82.0001 278.1088 15.08845547 61190,6917.863,95.437,540.32,539.137,0.0
53147.0,STARLINK-4094,PAYLOAD,2023-08-21 03:54:10,15.08832999,0.0001075,53.219,35.9071,90.1509,269.9607,-9.2117e-07,-3.02e-06,0.0,0 STARLINK-4094,1 53147U 22083R   23233.16262236 -.00000302  00000-0 -92117-6 0  9999,2 53147  53.2190  35.9071 0001075  90.1509 269.9607 15.08832999 61228,6917.902,95.438,540.51,539.023,0.0
53147.0,STARLINK-4094,PAYLOAD,2023-08-21 18:12:38,15.08846811,0.0001091,53.2175,33.2313,85.8502,274.2615,0.00014527,2.025e-05,0.0,0 STARLINK-4094,1 53147U 22083R   23233.75877673  .00002025  00000-0  14527-3 0  9999,2 53147  53.2175  33.2313 0001091  85.8502 274.2615 15.08846811 61319,6917.86,95.437,540.479,538.97,0.0
53147.0,STARLINK-4094,PAYLOAD,2023-08-21 22:58:47,15.08853939,0.0001086,53.2172,32.3389,96.0248,264.0868,0.00026383,3.915e-05,0.0,0 STARLINK-4094,1 53147U 22083R   23233.95749255  .00003915  00000-0  26383-3 0  9997,2 53147  53.2172  32.3389 0001086  96.0248 264.0868 15.08853939 61343,6917.838,95.437,540.454,538.952,0.0
53147.0,STARLINK-4094,PAYLOAD,2023-08-22 22:49:34,15.08848589,0.0001072,53.2179,27.8777,84.082,276.0294,0.00012969,1.777e-05,0.0,0 STARLINK-4094,1 53147U 22083R   23234.95109572  .00001777  00000-0  12969-3 0  9999,2 53147  53.2179  27.8777 0001072  84.0820 276.0294 15.08848589 61495,6917.854,95.437,540.461,538.978,0.0
53147.0,STARLINK-4094,PAYLOAD,2023-08-23 09:57:17,15.08832127,9.91e-05,53.217,25.7971,89.9785,270.1321,1.9793e-05,2.7e-07,0.0,0 STARLINK-4094,1 53147U 22083R   23235.41478416  .00000027  00000-0  19793-4 0  9997,2 53147  53.2170  25.7971 0000991  89.9785 270.1321 15.08832127 61567,6917.904,95.438,540.455,539.084,0.0
53147.0,STARLINK-4094,PAYLOAD,2023-08-24 17:44:59,15.08852174,0.0001184,53.2161,19.8523,73.8529,286.2593,0.00026895,3.996e-05,0.0,0 STARLINK-4094,1 53147U 22083R   23236.73957972  .00003996  00000-0  26895-3 0  9990,2 53147  53.2161  19.8523 0001184  73.8529 286.2593 15.08852174 61762,6917.843,95.437,540.527,538.889,0.0
53147.0,STARLINK-4094,PAYLOAD,2023-08-25 12:49:37,15.08842074,0.000125,53.218,16.2826,85.2871,274.8264,0.00010948,1.455e-05,0.0,0 STARLINK-4094,1 53147U 22083R   23237.53446252  .00001455  00000-0  10948-3 0  9993,2 53147  53.2180  16.2826 0001250  85.2871 274.8264 15.08842074 61903,6917.874,95.437,540.604,538.874,0.0
53147.0,STARLINK-4094,PAYLOAD,2023-08-25 19:11:09,15.08847922,0.0001297,53.2181,15.092,90.6754,269.4387,0.00016001,2.26e-05,0.0,0 STARLINK-4094,1 53147U 22083R   23237.79941922  .00002260  00000-0  16001-3 0  9996,2 53147  53.2181  15.0920 0001297  90.6754 269.4387 15.08847922 61922,6917.856,95.437,540.618,538.824,0.0
